NORAD_CAT_ID,OBJECT_NAME,OBJECT_TYPE,EPOCH,MEAN_MOTION,ECCENTRICITY,INCLINATION,RA_OF_ASC_NODE,ARG_OF_PERICENTER,MEAN_ANOMALY,BSTAR,MEAN_MOTION_DOT,MEAN_MOTION_DDOT,TLE_LINE0,TLE_LINE1,TLE_LINE2,SEMIMAJOR_AXIS,PERIOD,APOGEE,PERIGEE,DECAYED
52470.0,STARLINK-3859,PAYLOAD,2023-06-20 08:57:11,15.08837131,0.0001009,53.2151,198.289,89.059,271.0517,8.8762e-05,1.125e-05,0.0,0 STARLINK-3859,1 52470U 22049V   23171.37305178  .00001125  00000-0  88762-4 0  9997,2 52470  53.2151 198.2890 0001009  89.0590 271.0517 15.08837131 62294,6917.889,95.438,540.452,539.056,0.0
52470.0,STARLINK-3859,PAYLOAD,2023-06-21 10:23:22,15.08837465,0.0001009,53.2149,193.5311,84.6308,275.4799,4.8761e-05,4.88e-06,0.0,0 STARLINK-3859,1 52470U 22049V   23172.43289625  .00000488  00000-0  48761-4 0  9999,2 52470  53.2149 193.5311 0001009  84.6308 275.4799 15.08837465 62611,6917.888,95.438,540.451,539.055,0.0
52470.0,STARLINK-3859,PAYLOAD,2023-06-21 18:20:17,15.08837536,0.0001014,53.215,192.0443,84.9519,275.1588,5.7194e-05,6.23e-06,0.0,0 STARLINK-3859,1 52470U 22049V   23172.76409649  .00000623  00000-0  57194-4 0  9996,2 52470  53.2150 192.0443 0001014  84.9519 275.1588 15.08837536 62506,6917.888,95.438,540.454,539.051,0.0
52470.0,STARLINK-3859,PAYLOAD,2023-06-22 18:11:05,15.08837059,0.0001132,53.2154,187.583,83.7947,276.3174,7.4051e-05,8.91e-06,0.0,0 STARLINK-3859,1 52470U 22049V   23173.75769764  .00000891  00000-0  74051-4 0  9991,2 52470  53.2154 187.5830 0001132  83.7947 276.3174 15.08837059 62810,6917.889,95.438,540.537,538.971,0.0
52470.0,STARLINK-3859,PAYLOAD,2023-06-23 22:48:01,15.08841038,0.000113,53.2157,182.2304,84.2432,275.8689,5.1347e-05,5.29e-06,0.0,0 STARLINK-3859,1 52470U 22049V   23174.95001727  .00000529  00000-0  51347-4 0  9993,2 52470  53.2157 182.2304 0001130  84.2432 275.8689 15.08841038 62990,6917.877,95.437,540.524,538.96,0.0
52470.0,STARLINK-3859,PAYLOAD,2023-06-25 03:24:57,15.08841623,0.0001143,53.2159,176.8781,82.7062,277.406,7.7635e-05,9.48e-06,0.0,0 STARLINK-3859,1 52470U 22049V   23176.14233549  .00000948  00000-0  77635-4 0  9998,2 52470  53.2159 176.8781 0001143  82.7062 277.4060 15.08841623 63178,6917.875,95.437,540.531,538.95,0.0
52470.0,STARLINK-3859,PAYLOAD,2023-06-26 09:37:17,15.08840913,0.0001187,53.2157,171.2282,84.0925,276.0203,4.1055e-05,3.66e-06,0.0,0 STARLINK-3859,1 52470U 22049V   23177.40089572  .00000366  00000-0  41055-4 0  9994,2 52470  53.2157 171.2282 0001187  84.0925 276.0203 15.08840913 63368,6917.878,95.437,540.564,538.921,0.0
52470.0,STARLINK-3859,PAYLOAD,2023-06-27 15:49:37,15.08835707,0.0001212,53.2161,165.578,85.6179,274.4951,-5.9356e-06,-3.82e-06,0.0,0 STARLINK-3859,1 52470U 22049V   23178.65946025 -.00000382  00000-0 -59356-5 0  9991,2 52470  53.2161 165.5780 0001212  85.6179 274.4951 15.08835707 63557,6917.894,95.438,540.597,538.92,0.0
52470.0,STARLINK-3859,PAYLOAD,2023-06-29 04:23:29,15.08837172,0.000121,53.2166,158.7393,89.6783,270.4348,3.3884e-05,2.51e-06,0.0,0 STARLINK-3859,1 52470U 22049V   23180.18298144  .00000251  00000-0  33884-4 0  9994,2 52470  53.2166 158.7393 0001210  89.6783 270.4348 15.08837172 63788,6917.889,95.438,540.591,538.917,0.0
52470.0,STARLINK-3859,PAYLOAD,2023-06-30 15:21:58,15.08838256,0.0001262,53.2167,152.1955,82.6409,277.4727,-3.2125e-05,-7.99e-06,0.0,0 STARLINK-3859,1 52470U 22049V   23181.64026400 -.00000799  00000-0 -32125-4 0  9996,2 52470  53.2167 152.1955 0001262  82.6409 277.4727 15.08838256 64004,6917.886,95.438,540.624,538.878,0.0
52470.0,STARLINK-3859,PAYLOAD,2023-07-02 02:20:27,15.08841255,0.0001218,53.217,145.655,84.9543,275.1588,4.7182e-05,4.63e-06,0.0,0 STARLINK-3859,1 52470U 22049V   23183.09754230  .00000463  00000-0  47182-4 0  9991,2 52470  53.2170 145.6550 0001218  84.9543 275.1588 15.08841255 64228,6917.877,95.437,540.584,538.899,0.0
52470.0,STARLINK-3859,PAYLOAD,2023-07-03 06:57:24,15.08841638,0.0001247,53.2171,140.3024,87.6053,272.5082,7.2616e-05,8.68e-06,0.0,0 STARLINK-3859,1 52470U 22049V   23184.28986129  .00000868  00000-0  72616-4 0  9996,2 52470  53.2171 140.3024 0001247  87.6053 272.5082 15.08841638 64400,6917.875,95.437,540.603,538.878,0.0
52470.0,STARLINK-3859,PAYLOAD,2023-07-04 02:02:02,15.08837894,0.0001213,53.2165,136.7335,93.3987,266.7144,-3.5203e-05,-8.48e-06,0.0,0 STARLINK-3859,1 52470U 22049V   23185.08474709 -.00000848  00000-0 -35203-4 0  9992,2 52470  53.2165 136.7335 0001213  93.3987 266.7144 15.08837894 64526,6917.887,95.438,540.591,538.913,0.0
52470.0,STARLINK-3859,PAYLOAD,2023-07-05 13:00:31,15.0883597,0.0001288,53.2172,130.1931,105.675,254.4384,-2.3936e-05,-6.69e-06,0.0,0 STARLINK-3859,1 52470U 22049V   23186.54203067 -.00000669  00000-0 -23936-4 0  9992,2 52470  53.2172 130.1931 0001288 105.6750 254.4384 15.08835970 64748,6917.893,95.438,540.649,538.867,0.0
52470.0,STARLINK-3859,PAYLOAD,2023-07-06 19:12:51,15.08836518,0.0001132,53.2169,124.5438,91.7498,268.3624,8.7241e-05,1.101e-05,0.0,0 STARLINK-3859,1 52470U 22049V   23187.80059160  .00001101  00000-0  87241-4 0  9994,2 52470  53.2169 124.5438 0001132  91.7498 268.3624 15.08836518 64936,6917.891,95.438,540.539,538.973,0.0
52470.0,STARLINK-3859,PAYLOAD,2023-07-07 04:45:09,15.08844151,0.0001143,53.2171,122.7595,92.7308,267.3815,0.00010333,1.357e-05,0.0,0 STARLINK-3859,1 52470U 22049V   23188.19802687  .00001357  00000-0  10333-3 0  9997,2 52470  53.2171 122.7595 0001143  92.7308 267.3815 15.08844151 64995,6917.868,95.437,540.523,538.942,0.0
52470.0,STARLINK-3859,PAYLOAD,2023-07-07 12:42:05,15.08838445,0.0001287,53.2172,121.2724,96.3907,263.7232,3.273e-05,2.33e-06,0.0,0 STARLINK-3859,1 52470U 22049V   23188.52923281  .00000233  00000-0  32730-4 0  9996,2 52470  53.2172 121.2724 0001287  96.3907 263.7232 15.08838445 65047,6917.885,95.438,540.64,538.86,0.0
52470.0,STARLINK-3859,PAYLOAD,2023-07-08 04:35:56,15.08845698,0.0001145,53.2171,118.298,95.4015,264.7107,7.5146e-05,9.08e-06,0.0,0 STARLINK-3859,1 52470U 22049V   23189.19162696  .00000908  00000-0  75146-4 0  9992,2 52470  53.2171 118.2980 0001145  95.4015 264.7107 15.08845698 65140,6917.863,95.437,540.52,538.936,0.0
52470.0,STARLINK-3859,PAYLOAD,2023-07-08 18:54:25,15.08838095,0.0001404,53.2169,115.6229,86.9518,273.1635,-2.6112e-05,-7.03e-06,0.0,0 STARLINK-3859,1 52470U 22049V   23189.78779594 -.00000703  00000-0 -26112-4 0  9992,2 52470  53.2169 115.6229 0001404  86.9518 273.1635 15.08838095 65238,6917.886,95.438,540.722,538.78,0.0
52470.0,STARLINK-3859,PAYLOAD,2023-07-10 04:17:31,15.08843446,0.0001173,53.2174,109.3773,95.6166,264.496,1.3094e-05,-7.9e-07,0.0,0 STARLINK-3859,1 52470U 22049V   23191.17883306 -.00000079  00000-0  13094-4 0  9995,2 52470  53.2174 109.3773 0001173  95.6166 264.4960 15.08843446 65440,6917.87,95.437,540.546,538.923,0.0
52470.0,STARLINK-3859,PAYLOAD,2023-07-12 03:59:05,15.08844301,0.0001187,53.2181,100.4565,93.1899,266.9229,3.8085e-05,3.18e-06,0.0,0 STARLINK-3859,1 52470U 22049V   23193.16603077  .00000318  00000-0  38085-4 0  9993,2 52470  53.2181 100.4565 0001187  93.1899 266.9229 15.08844301 65749,6917.867,95.437,540.553,538.911,0.0
52470.0,STARLINK-3859,PAYLOAD,2023-07-13 18:08:21,15.08834982,9.8e-05,53.2178,93.323,97.8244,262.286,-4.2759e-05,-9.68e-06,0.0,0 STARLINK-3859,1 52470U 22049V   23194.75580300 -.00000968  00000-0 -42759-4 0  9998,2 52470  53.2178  93.3230 0000980  97.8244 262.2860 15.08834982 65989,6917.896,95.438,540.439,539.083,0.0
52470.0,STARLINK-3859,PAYLOAD,2023-07-15 01:56:03,15.08848598,9.48e-05,53.2172,87.3746,85.9195,274.1905,0.00018049,2.587e-05,0.0,0 STARLINK-3859,1 52470U 22049V   23196.08059110  .00002587  00000-0  18049-3 0  9997,2 52470  53.2172  87.3746 0000948  85.9195 274.1905 15.08848598 66188,6917.854,95.437,540.375,539.063,0.0
52470.0,STARLINK-3859,PAYLOAD,2023-07-16 01:46:51,15.08838341,0.0001001,53.2183,82.9102,83.0184,277.0922,4.4369e-05,4.18e-06,0.0,0 STARLINK-3859,1 52470U 22049V   23197.07420176  .00000418  00000-0  44369-4 0  9997,2 52470  53.2183  82.9102 0001001  83.0184 277.0922 15.08838341 66338,6917.885,95.438,540.443,539.058,0.0
52470.0,STARLINK-3859,PAYLOAD,2023-07-17 09:34:33,15.08848657,9.49e-05,53.2177,76.9642,89.8489,270.2612,-6.0724e-06,-3.84e-06,0.0,0 STARLINK-3859,1 52470U 22049V   23198.39899423 -.00000384  00000-0 -60724-5 0  9996,2 52470  53.2177  76.9642 0000949  89.8489 270.2612 15.08848657 66539,6917.854,95.437,540.375,539.062,0.0
52470.0,STARLINK-3859,PAYLOAD,2023-07-19 01:19:12,15.08834752,0.0001152,53.2181,69.5285,99.597,260.5153,4.8541e-06,-2.11e-06,0.0,0 STARLINK-3859,1 52470U 22049V   23200.05500453 -.00000211  00000-0  48541-5 0  9996,2 52470  53.2181  69.5285 0001152  99.5970 260.5153 15.08834752 66785,6917.896,95.438,540.558,538.964,0.0
52470.0,STARLINK-3859,PAYLOAD,2023-07-20 15:28:28,15.08837547,9.73e-05,53.2186,62.3981,101.265,258.8452,2.3512e-05,8.6e-07,0.0,0 STARLINK-3859,1 52470U 22049V   23201.64476918  .00000086  00000-0  23512-4 0  9999,2 52470  53.2186  62.3981 0000973 101.2650 258.8452 15.08837547 67025,6917.888,95.438,540.426,539.08,0.0
52470.0,STARLINK-3859,PAYLOAD,2023-07-21 01:00:46,15.08841443,0.0001063,53.2189,60.6107,99.291,260.8202,0.00010215,1.338e-05,0.0,0 STARLINK-3859,1 52470U 22049V   23202.04220475  .00001338  00000-0  10215-3 0  9995,2 52470  53.2189  60.6107 0001063  99.2910 260.8202 15.08841443 67087,6917.876,95.437,540.476,539.006,0.0
52470.0,STARLINK-3859,PAYLOAD,2023-07-24 13:16:13,15.08836312,9.04e-05,53.2176,44.8496,84.0881,276.0214,5.4059e-05,5.73e-06,0.0,0 STARLINK-3859,1 52470U 22049V   23205.55293116  .00000573  00000-0  54059-4 0  9991,2 52470  53.2176  44.8496 0000904  84.0881 276.0214 15.08836312 67452,6917.892,95.438,540.382,539.131,0.0
52470.0,STARLINK-3859,PAYLOAD,2023-07-25 13:06:59,15.08843112,8.83e-05,53.2179,40.3893,90.5335,269.5758,4.6439e-05,4.52e-06,0.0,0 STARLINK-3859,1 52470U 22049V   23206.54652614  .00000452  00000-0  46439-4 0  9992,2 52470  53.2179  40.3893 0000883  90.5335 269.5758 15.08843112 67602,6917.871,95.437,540.347,539.125,0.0
